     3.00           N                   E                   RINEX VERSION / TYPE
BRD_USR             ESA                 20190113 161703  UTCPGM / RUN BY / DATE
 GAL   3.9000E+01  9.3750E-02 -1.2207E-03  0.0000E+00       IONOSPHERIC CORR
GAUT  2.7939677238E-09-1.776356839E-15      0 2036 GSTB   0 TIME SYSTEM CORR
GPGA -4.9476511776E-10-6.217248938E-15  86400 2036 GSTB   0 TIME SYSTEM CORR
                                                            END OF HEADER
E05 2019 01 13 13 20 00 1.257690018974E-04-6.536993168993E-12 0.000000000000E+00
     8.000000000000E+01-5.134375000000E+01 3.327281451771E-09 7.329811342121E-01
    -2.326443791389E-06 1.350323436782E-04 1.108087599277E-05 5.440621812820E+03
     4.800000000000E+04 5.587935447693E-09 1.120517996404E+00-2.048909664154E-08
     9.524637737793E-01 9.793750000000E+01 1.625436906612E+00-5.597018852587E-09
    -9.821837690392E-11 5.210000000000E+02 2.036000000000E+03 0.000000000000E+00
     3.120000000000E+00 0.000000000000E+00-1.629814505577E-09-1.862645149231E-09
     5.042500000000E+04 0.000000000000E+00 0.000000000000E+00 0.000000000000E+00
E07 2019 01 13 13 40 00-1.118215732276E-04-7.034373084025E-12 0.000000000000E+00
     8.200000000000E+01-3.168750000000E+01 3.267636110160E-09 1.520371114702E-01
    -1.482665538788E-06 1.356732100248E-04 1.025013625622E-05 5.440622798920E+03
     4.920000000000E+04-2.421438694000E-08 1.120528453342E+00 3.725290298462E-09
     9.524940415543E-01 1.175937500000E+02-2.759740828569E-03-5.571660653459E-09
    -3.643008888800E-11 5.210000000000E+02 2.036000000000E+03 0.000000000000E+00
     3.120000000000E+00 0.000000000000E+00 4.656612873077E-10 2.328306436539E-10
     5.042500000000E+04 0.000000000000E+00 0.000000000000E+00 0.000000000000E+00
E08 2019 01 13 13 40 00 6.424225517549E-03-7.446487870766E-12 0.000000000000E+00
     8.200000000000E+01-5.137500000000E+01 3.252635485324E-09 4.756359657471E-01
    -2.274289727211E-06 2.145054750144E-04 1.010857522488E-05 5.440617208481E+03
     4.920000000000E+04-1.862645149231E-08 1.111920893523E+00-1.490116119385E-08
     9.584370453100E-01 1.219062500000E+02 4.602428476705E-01-5.536302037773E-09
    -6.535986535788E-11 5.210000000000E+02 2.036000000000E+03 0.000000000000E+00
     3.120000000000E+00 0.000000000000E+00-8.614733815193E-09-1.001171767712E-08
     5.042500000000E+04 0.000000000000E+00 0.000000000000E+00 0.000000000000E+00
E09 2019 01 13 13 40 00 6.559464207385E-03-1.132605120802E-11 0.000000000000E+00
     8.200000000000E+01-3.987500000000E+01 3.215491080967E-09-3.081945030375E+00
    -1.898035407066E-06 2.390373265371E-04 1.165829598904E-05 5.440619590759E+03
     4.920000000000E+04-3.725290298462E-09 1.111918797161E+00-2.607703208923E-08
     9.584668756726E-01 8.712500000000E+01 8.956139843174E-02-5.535587722305E-09
    -1.164334213479E-10 5.210000000000E+02 2.036000000000E+03 0.000000000000E+00
     3.120000000000E+00 0.000000000000E+00-3.492459654808E-09-4.190951585770E-09
     5.042500000000E+04 0.000000000000E+00 0.000000000000E+00 0.000000000000E+00
E11 2019 01 13 13 40 00 5.719708977267E-03 7.958078640513E-13 0.000000000000E+00
     8.200000000000E+01 2.640625000000E+01 2.869405236531E-09-5.523922169417E-01
     1.283362507820E-06 2.795943291858E-04 6.869435310364E-06 5.440602182388E+03
     4.920000000000E+04 3.539025783539E-08-9.848076241619E-01 5.587935447693E-09
     9.819499643746E-01 1.984062500000E+02-3.440937923619E-01-5.627734417728E-09
     3.925163498815E-10 5.210000000000E+02 2.036000000000E+03 0.000000000000E+00
     3.120000000000E+00 0.000000000000E+00-1.839362084866E-08-2.002343535423E-08
     5.042500000000E+04 0.000000000000E+00 0.000000000000E+00 0.000000000000E+00
E12 2019 01 13 13 40 00 5.933582142461E-03 8.435563358944E-11 0.000000000000E+00
     8.200000000000E+01 2.496875000000E+01 2.840118302327E-09 7.487383082302E-01
     1.221895217896E-06 4.032147116959E-04 6.310641765594E-06 5.440605604172E+03
     4.920000000000E+04 4.470348358154E-08-9.848232452012E-01 9.313225746155E-09
     9.819644940770E-01 2.146562500000E+02-8.415990989520E-01-5.637020518817E-09
     3.728726745007E-10 5.210000000000E+02 2.036000000000E+03 0.000000000000E+00
     3.120000000000E+00 0.000000000000E+00-1.536682248116E-08-1.559965312481E-08
     5.042500000000E+04 0.000000000000E+00 0.000000000000E+00 0.000000000000E+00
E13 2019 01 13 13 40 00 3.816836397164E-04 5.258016244625E-13 0.000000000000E+00
     8.200000000000E+01 1.262500000000E+01 2.745114345031E-09-2.525593966932E+00
     6.444752216339E-07 3.419521963224E-04 5.837529897690E-06 5.440602199554E+03
     4.920000000000E+04-3.725290298462E-08-9.900926336980E-01 5.587935447693E-09
     9.851919737030E-01 2.236875000000E+02-1.505948410167E+00-5.578089492674E-09
     3.332281660049E-10 5.210000000000E+02 2.036000000000E+03 0.000000000000E+00
     3.120000000000E+00 4.550000000000E+02-4.423782229424E-09-5.587935447693E-09
     5.042500000000E+04 0.000000000000E+00 0.000000000000E+00 0.000000000000E+00
E14 2019 01 13 13 40 00 6.460519100074E-03-5.599076757790E-12 0.000000000000E+00
     8.200000000000E+01-4.265625000000E+01 5.389867366753E-09 2.863266274533E-01
    -2.931803464890E-06 1.662549913162E-01 1.036562025547E-05 5.289357604980E+03
     4.920000000000E+04-3.224238753319E-06-1.586880574186E+00-3.429129719734E-06
     8.826333805374E-01 1.716562500000E+02 1.457582357676E+00-9.221455539209E-09
     6.307405585903E-10 5.210000000000E+02 2.036000000000E+03 0.000000000000E+00
     3.120000000000E+00 4.550000000000E+02 3.329478204250E-08 3.725290298462E-08
     5.042500000000E+04 0.000000000000E+00 0.000000000000E+00 0.000000000000E+00
E15 2019 01 13 13 40 00 9.230768191628E-04-1.065814103640E-12 0.000000000000E+00
     8.200000000000E+01 1.293750000000E+01 2.770472544159E-09-1.657508304594E+00
     7.152557373047E-07 3.886881750077E-04 6.577000021935E-06 5.440596576691E+03
     4.920000000000E+04-1.862645149231E-09-9.901042390272E-01-1.303851604462E-08
     9.851500611001E-01 2.112812500000E+02-1.591754124846E+00-5.528087409887E-09
     3.371569010811E-10 5.210000000000E+02 2.036000000000E+03 0.000000000000E+00
     3.120000000000E+00 4.550000000000E+02 1.396983861923E-09 1.164153218269E-09
     5.042500000000E+04 0.000000000000E+00 0.000000000000E+00 0.000000000000E+00
E18 2019 01 13 13 40 00 5.609342944808E-03-2.850697455870E-11 0.000000000000E+00
     8.200000000000E+01 2.046875000000E+01 4.502687555010E-09-2.885736283688E+00
     4.488974809647E-07 1.662899767980E-01 6.504356861115E-06 5.289389558792E+03
     4.920000000000E+04 3.272667527199E-06-1.569699003647E+00-5.606561899185E-07
     8.818469918497E-01 1.518750000000E+02 1.442154131028E+00-5.850600843866E-09
     1.964367538078E-11 5.210000000000E+02 2.036000000000E+03 0.000000000000E+00
     3.120000000000E+00 4.550000000000E+02 1.396983861923E-08 1.559965312481E-08
     5.042500000000E+04 0.000000000000E+00 0.000000000000E+00 0.000000000000E+00
E19 2019 01 13 13 40 00-9.152689017355E-06 2.700062395888E-13 0.000000000000E+00
     8.200000000000E+01-1.740625000000E+01 3.313709457871E-09 2.563473342794E+00
    -8.102506399155E-07 1.388099044561E-04 1.060217618942E-05 5.440618621826E+03
     4.920000000000E+04 1.676380634308E-08 1.117272950057E+00 6.146728992462E-08
     9.582216598812E-01 1.136562500000E+02 2.377523216974E+00-5.573089284396E-09
    -1.928651764659E-11 5.210000000000E+02 2.036000000000E+03 0.000000000000E+00
     3.120000000000E+00 0.000000000000E+00-8.381903171539E-09-8.614733815193E-09
     5.042500000000E+04 0.000000000000E+00 0.000000000000E+00 0.000000000000E+00
E21 2019 01 13 13 40 00-5.142315640114E-04-1.861621967691E-12 0.000000000000E+00
     8.200000000000E+01 1.771875000000E+01 2.855833242632E-09-3.090667114737E+00
     8.381903171539E-07 4.865729715675E-05 5.476176738739E-06 5.440626325607E+03
     4.920000000000E+04 1.676380634308E-08-3.072695935628E+00-5.587935447693E-09
     9.896771576489E-01 2.372187500000E+02 3.809421342832E-01-5.598090325789E-09
    -2.692969315838E-10 5.210000000000E+02 2.036000000000E+03 0.000000000000E+00
    -1.000000000000E+00 0.000000000000E+00-2.328306436539E-09-2.793967723846E-09
     5.042500000000E+04 0.000000000000E+00 0.000000000000E+00 0.000000000000E+00
E24 2019 01 13 13 40 00 6.288096366916E-03-1.968203378055E-11 0.000000000000E+00
     8.200000000000E+01 2.103125000000E+01 2.893691962457E-09 6.823915779026E-01
     9.890645742416E-07 4.796456778422E-04 5.364418029785E-06 5.440610443115E+03
     4.920000000000E+04-8.195638656616E-08-3.066627877246E+00 2.793967723846E-08
     9.876826326947E-01 2.384687500000E+02 5.143011890175E-01-5.580232439080E-09
    -2.835832409517E-10 5.210000000000E+02 2.036000000000E+03 0.000000000000E+00
     3.120000000000E+00 0.000000000000E+00 4.260800778866E-08 4.773028194904E-08
     5.042500000000E+04 0.000000000000E+00 0.000000000000E+00 0.000000000000E+00
E25 2019 01 13 13 40 00 1.925052609295E-03-1.138289462688E-11 0.000000000000E+00
     8.200000000000E+01 2.281250000000E+01 2.936193732826E-09 1.781992053316E+00
     1.030042767525E-06 1.829587854445E-04 5.044043064117E-06 5.440620912552E+03
     4.920000000000E+04 9.313225746155E-09-3.072704778968E+00 5.029141902924E-08
     9.896828279194E-01 2.442500000000E+02-1.348535542890E+00-5.625948629057E-09
    -2.442958901901E-10 5.210000000000E+02 2.036000000000E+03 0.000000000000E+00
     3.120000000000E+00 0.000000000000E+00-1.164153218269E-09-1.396983861923E-09
     5.042500000000E+04 0.000000000000E+00 0.000000000000E+00 0.000000000000E+00
